TRANSPORTER-10 OBJECT AG
1 59128U 24043AG  26068.92552531  .00009498  00000+0  32170-3 0  9997
2 59128  97.5471 205.7101 0009300 226.5958 133.4509 15.30759727111920
STARLINK-36131          
1 67032U 25294C   26068.95868264  .00029298  00000+0  10697-2 0  9994
2 67032  43.0026  36.2761 0001329 252.9195 107.1511 15.27587084 14848
